{"type": "FeatureCollection", "features": [ {"type": "Feature", "properties": {"norad_id": 30613, "name": "FENGYUN 1C DEB", "group": "fengyun-1c-debris", "lat": 26.0134281283139, "lon": 112.74601034514599, "alt_km": 521.7100649406475, "timestamp": "2025-12-22T04:03:39.446696+00:00", "meta": {"OBJECT_NAME": "FENGYUN 1C DEB", "OBJECT_ID": "1999-025AMU", "EPOCH": "2025-12-21T20:02:22.831008", "MEAN_MOTION": 15.18941649, "ECCENTRICITY": 0.0062265, "INCLINATION": 98.3081, "RA_OF_ASC_NODE": 116.4683, "ARG_OF_PERICENTER": 136.4984, "MEAN_ANOMALY": 224.1184, "EPHEMERIS_TYPE": 0, "CLASSIFICATION_TYPE": "U", "NORAD_CAT_ID": 30613, "ELEMENT_SET_NO": 999, "REV_AT_EPOCH": 99534, "BSTAR": 0.0039744, "MEAN_MOTION_DOT": 0.00088234, "MEAN_MOTION_DDOT": 0}, "tle": {"line1": "1 30613U 99025AMU 25355.83498647  .00088234  00000+0  39744-2 0  9990", "line2": "2 30613  98.3081 116.4683 0062265 136.4984 224.1184 15.18941649995349"}}, "geometry": {"type": "Point", "coordinates": [112.74601034514599, 26.0134281283139]}}, {"type": "Feature", "properties": {"norad_id": 30616, "name": "FENGYUN 1C DEB", "group": "fengyun-1c-debris", "lat": 61.015660659667724, "lon": 37.019277119218394, "alt_km": 1399.3227133213204, "timestamp": "2025-12-22T04:03:39.446707+00:00", "meta": {"OBJECT_NAME": "FENGYUN 1C DEB", "OBJECT_ID": "1999-025AMX", "EPOCH": "2025-12-18T09:51:45.103680", "MEAN_MOTION": 13.36032178, "ECCENTRICITY": 0.03810428, "INCLINATION": 98.6415, "RA_OF_ASC_NODE": 49.7595, "ARG_OF_PERICENTER": 241.7539, "MEAN_ANOMALY": 114.4637, "EPHEMERIS_TYPE": 0, "CLASSIFICATION_TYPE": "U", "NORAD_CAT_ID": 30616, "ELEMENT_SET_NO": 999, "REV_AT_EPOCH": 91776, "BSTAR": 0.0017718514, "MEAN_MOTION_DOT": 1.337e-05, "MEAN_MOTION_DDOT": 0}, "tle": {"line1": "1 30616U 99025AMX 25352.41093870  .00001337  00000+0  17719-2 0  9990", "line2": "2 30616  98.6415  49.7595 0381042 241.7539 114.4637 13.36032178917769"}}, "geometry": {"type": "Point", "coordinates": [37.019277119218394, 61.015660659667724]}}, {"type": "Feature", "properties": {"norad_id": 30619, "name": "FENGYUN 1C DEB", "group": "fengyun-1c-debris", "lat": -22.300739970482237, "lon": 22.259046601601526, "alt_km": 664.5334678039553, "timestamp": "2025-12-22T04:03:39.446717+00:00", "meta": {"OBJECT_NAME": "FENGYUN 1C DEB", "OBJECT_ID": "1999-025ANA", "EPOCH": "2025-12-21T08:09:58.591872", "MEAN_MOTION": 14.41114945, "ECCENTRICITY": 0.0215509, "INCLINATION": 98.2951, "RA_OF_ASC_NODE": 18.0235, "ARG_OF_PERICENTER": 32.5792, "MEAN_ANOMALY": 328.8486, "EPHEMERIS_TYPE": 0, "CLASSIFICATION_TYPE": "U", "NORAD_CAT_ID": 30619, "ELEMENT_SET_NO": 999, "REV_AT_EPOCH": 99073, "BSTAR": 0.00024651879, "MEAN_MOTION_DOT": 9.96e-06, "MEAN_MOTION_DDOT": 0}, "tle": {"line1": "1 30619U 99025ANA 25355.34026148  .00000996  00000+0  24652-3 0  9997", "line2": "2 30619  98.2951  18.0235 0215509  32.5792 328.8486 14.41114945990735"}}, "geometry": {"type": "Point", "coordinates": [22.259046601601526, -22.300739970482237]}}, {"type": "Feature", "properties": {"norad_id": 30621, "name": "FENGYUN 1C DEB", "group": "fengyun-1c-debris", "lat": 40.12410278495877, "lon": 126.60304020733028, "alt_km": 953.8889299861266, "timestamp": "2025-12-22T04:03:39.446727+00:00", "meta": {"OBJECT_NAME": "FENGYUN 1C DEB", "OBJECT_ID": "1999-025ANC", "EPOCH": "2025-12-21T18:55:41.558016", "MEAN_MOTION": 14.03879379, "ECCENTRICITY": 0.0136725, "INCLINATION": 98.6982, "RA_OF_ASC_NODE": 298.8258, "ARG_OF_PERICENTER": 281.3813, "MEAN_ANOMALY": 96.7148, "EPHEMERIS_TYPE": 0, "CLASSIFICATION_TYPE": "U", "NORAD_CAT_ID": 30621, "ELEMENT_SET_NO": 999, "REV_AT_EPOCH": 95717, "BSTAR": 0.0016978, "MEAN_MOTION_DOT": 2.868e-05, "MEAN_MOTION_DDOT": 0}, "tle": {"line1": "1 30621U 99025ANC 25355.78867544  .00002868  00000+0  16978-2 0  9992", "line2": "2 30621  98.6982 298.8258 0136725 281.3813  96.7148 14.03879379957173"}}, "geometry": {"type": "Point", "coordinates": [126.60304020733028, 40.12410278495877]}}, {"type": "Feature", "properties": {"norad_id": 30622, "name": "FENGYUN 1C DEB", "group": "fengyun-1c-debris", "lat": -57.59062895855175, "lon": 172.352749710411, "alt_km": 811.4046129846365, "timestamp": "2025-12-22T04:03:39.446740+00:00", "meta": {"OBJECT_NAME": "FENGYUN 1C DEB", "OBJECT_ID": "1999-025AND", "EPOCH": "2025-12-20T21:18:30.354048", "MEAN_MOTION": 14.31337635, "ECCENTRICITY": 0.0072413, "INCLINATION": 101.0011, "RA_OF_ASC_NODE": 8.5769, "ARG_OF_PERICENTER": 352.4958, "MEAN_ANOMALY": 128.3988, "EPHEMERIS_TYPE": 0, "CLASSIFICATION_TYPE": "U", "NORAD_CAT_ID": 30622, "ELEMENT_SET_NO": 999, "REV_AT_EPOCH": 68914, "BSTAR": 0.0021293, "MEAN_MOTION_DOT": 5.745e-05, "MEAN_MOTION_DDOT": 0}, "tle": {"line1": "1 30622U 99025AND 25354.88785132  .00005745  00000+0  21293-2 0  9998", "line2": "2 30622 101.0011   8.5769 0072413 352.4958 128.3988 14.31337635689140"}}, "geometry": {"type": "Point", "coordinates": [172.352749710411, -57.59062895855175]}}, {"type": "Feature", "properties": {"norad_id": 30623, "name": "FENGYUN 1C DEB", "group": "fengyun-1c-debris", "lat": -44.87786184221041, "lon": -15.348268913824114, "alt_km": 1386.8863136913378, "timestamp": "2025-12-22T04:03:39.446750+00:00", "meta": {"OBJECT_NAME": "FENGYUN 1C DEB", "OBJECT_ID": "1999-025ANE", "EPOCH": "2025-12-21T18:01:25.554144", "MEAN_MOTION": 13.29345474, "ECCENTRICITY": 0.040375, "INCLINATION": 98.823, "RA_OF_ASC_NODE": 173.1896, "ARG_OF_PERICENTER": 85.5664, "MEAN_ANOMALY": 296.5298, "EPHEMERIS_TYPE": 0, "CLASSIFICATION_TYPE": "U", "NORAD_CAT_ID": 30623, "ELEMENT_SET_NO": 999, "REV_AT_EPOCH": 91336, "BSTAR": 0.00046324, "MEAN_MOTION_DOT": 3.03e-06, "MEAN_MOTION_DDOT": 0}, "tle": {"line1": "1 30623U 99025ANE 25355.75099021  .00000303  00000+0  46324-3 0  9999", "line2": "2 30623  98.8230 173.1896 0403750  85.5664 296.5298 13.29345474913369"}}, "geometry": {"type": "Point", "coordinates": [-15.348268913824114, -44.87786184221041]}}, {"type": "Feature", "properties": {"norad_id": 30624, "name": "FENGYUN 1C DEB", "group": "fengyun-1c-debris", "lat": 39.47264106852452, "lon": -93.71410211245006, "alt_km": 684.842992816928, "timestamp": "2025-12-22T04:03:39.446761+00:00", "meta": {"OBJECT_NAME": "FENGYUN 1C DEB", "OBJECT_ID": "1999-025ANF", "EPOCH": "2025-12-21T04:26:09.447648", "MEAN_MOTION": 14.62636214, "ECCENTRICITY": 0.00232881, "INCLINATION": 98.8874, "RA_OF_ASC_NODE": 77.8232, "ARG_OF_PERICENTER": 244.6231, "MEAN_ANOMALY": 115.2557, "EPHEMERIS_TYPE": 0, "CLASSIFICATION_TYPE": "U", "NORAD_CAT_ID": 30624, "ELEMENT_SET_NO": 999, "REV_AT_EPOCH": 97619, "BSTAR": 0.0029618402, "MEAN_MOTION_DOT": 0.00015094, "MEAN_MOTION_DDOT": 0}, "tle": {"line1": "1 30624U 99025ANF 25355.18483157  .00015094  00000+0  29618-2 0  9993", "line2": "2 30624  98.8874  77.8232 0023288 244.6231 115.2557 14.62636214976198"}}, "geometry": {"type": "Point", "coordinates": [-93.71410211245006, 39.47264106852452]}}, {"type": "Feature", "properties": {"norad_id": 30625, "name": "FENGYUN 1C DEB", "group": "fengyun-1c-debris", "lat": 71.15236446903424, "lon": 159.9645879711114, "alt_km": 779.8636124549594, "timestamp": "2025-12-22T04:03:39.446774+00:00", "meta": {"OBJECT_NAME": "FENGYUN 1C DEB", "OBJECT_ID": "1999-025ANG", "EPOCH": "2025-12-20T13:15:18.497088", "MEAN_MOTION": 14.41690743, "ECCENTRICITY": 0.0048624, "INCLINATION": 98.926, "RA_OF_ASC_NODE": 310.8621, "ARG_OF_PERICENTER": 279.6327, "MEAN_ANOMALY": 79.937, "EPHEMERIS_TYPE": 0, "CLASSIFICATION_TYPE": "U", "NORAD_CAT_ID": 30625, "ELEMENT_SET_NO": 999, "REV_AT_EPOCH": 96805, "BSTAR": 0.0024006, "MEAN_MOTION_DOT": 7.897e-05, "MEAN_MOTION_DDOT": 0}, "tle": {"line1": "1 30625U 99025ANG 25354.55229742  .00007897  00000+0  24006-2 0  9990", "line2": "2 30625  98.9260 310.8621 0048624 279.6327  79.9370 14.41690743968055"}}, "geometry": {"type": "Point", "coordinates": [159.9645879711114, 71.15236446903424]}}, {"type": "Feature", "properties": {"norad_id": 30628, "name": "FENGYUN 1C DEB", "group": "fengyun-1c-debris", "lat": -11.958317717860531, "lon": -84.76049687140922, "alt_km": 677.9937950650738, "timestamp": "2025-12-22T04:03:39.446787+00:00", "meta": {"OBJECT_NAME": "FENGYUN 1C DEB", "OBJECT_ID": "1999-025ANK", "EPOCH": "2025-12-21T18:18:35.377344", "MEAN_MOTION": 14.69285553, "ECCENTRICITY": 0.002181, "INCLINATION": 99.3411, "RA_OF_ASC_NODE": 272.7776, "ARG_OF_PERICENTER": 217.0453, "MEAN_ANOMALY": 142.9244, "EPHEMERIS_TYPE": 0, "CLASSIFICATION_TYPE": "U", "NORAD_CAT_ID": 30628, "ELEMENT_SET_NO": 999, "REV_AT_EPOCH": 98603, "BSTAR": 0.0019569, "MEAN_MOTION_DOT": 0.00011543, "MEAN_MOTION_DDOT": 0}, "tle": {"line1": "1 30628U 99025ANK 25355.76290946  .00011543  00000+0  19569-2 0  9992", "line2": "2 30628  99.3411 272.7776 0021810 217.0453 142.9244 14.69285553986030"}}, "geometry": {"type": "Point", "coordinates": [-84.76049687140922, -11.958317717860531]}}, {"type": "Feature", "properties": {"norad_id": 30629, "name": "FENGYUN 1C DEB", "group": "fengyun-1c-debris", "lat": 2.138064023798164, "lon": -86.47024478959023, "alt_km": 691.1531523183621, "timestamp": "2025-12-22T04:03:39.446797+00:00", "meta": {"OBJECT_NAME": "FENGYUN 1C DEB", "OBJECT_ID": "1999-025ANL", "EPOCH": "2025-12-21T18:04:40.031040", "MEAN_MOTION": 14.59785142, "ECCENTRICITY": 0.0007567, "INCLINATION": 99.2515, "RA_OF_ASC_NODE": 92.7176, "ARG_OF_PERICENTER": 178.5163, "MEAN_ANOMALY": 334.455, "EPHEMERIS_TYPE": 0, "CLASSIFICATION_TYPE": "U", "NORAD_CAT_ID": 30629, "ELEMENT_SET_NO": 999, "REV_AT_EPOCH": 98021, "BSTAR": 0.0022998, "MEAN_MOTION_DOT": 0.00010949, "MEAN_MOTION_DDOT": 0}, "tle": {"line1": "1 30629U 99025ANL 25355.75324110  .00010949  00000+0  22998-2 0  9992", "line2": "2 30629  99.2515  92.7176 0007567 178.5163 334.4550 14.59785142980211"}}, "geometry": {"type": "Point", "coordinates": [-86.47024478959023, 2.138064023798164]}}]}